start=new Date('2023-05-10T00:00:00.000Z').valueOf();
sats=[{"TIME_SYSTEM":"UTC","BSTAR":"0.00178060000000","MEAN_ELEMENT_THEORY":"SGP4","CENTER_NAME":"EARTH","RCS_SIZE":"LARGE","MEAN_ANOMALY":"32.3841","SEMIMAJOR_AXIS":"6931.257","MEAN_MOTION_DOT":"0.00025212","OBJECT_TYPE":"PAYLOAD","ELEMENT_SET_NO":"999","CLASSIFICATION_TYPE":"U","INCLINATION":"43.0003","TLE_LINE2":"2 55376  43.0003 151.8347 0001659 271.0907  32.3841 15.04474102  1307","PERIAPSIS":"551.973","EPHEMERIS_TYPE":"0","ECCENTRICITY":"0.00016590","FILE":"3904553","OBJECT_ID":"2023-013AX","EPOCH":"2023-05-09T14:00:01.000224","PERIOD":"95.715","LAUNCH_DATE":"2023-01-26","OBJECT_NAME":"STARLINK-5586","TLE_LINE1":"1 55376U 23013AX  23129.58334491  .00025212  00000-0  17806-2 0  9995","GP_ID":"231509028","REF_FRAME":"TEME","MEAN_MOTION":"15.04474102","COUNTRY_CODE":"US","RA_OF_ASC_NODE":"151.8347","NORAD_CAT_ID":"55376","SITE":"AFETR","DECAY_DATE":null,"REV_AT_EPOCH":"130","ARG_OF_PERICENTER":"271.0907","MEAN_MOTION_DDOT":"0.0000000000000","APOAPSIS":"554.272"},{"MEAN_MOTION_DOT":"0.00002447","SEMIMAJOR_AXIS":"6937.206","MEAN_ANOMALY":"86.7702","RCS_SIZE":"LARGE","CENTER_NAME":"EARTH","BSTAR":"0.00019614000000","TIME_SYSTEM":"UTC","MEAN_ELEMENT_THEORY":"SGP4","OBJECT_ID":"2023-013AY","FILE":"3904553","ECCENTRICITY":"0.00016030","EPHEMERIS_TYPE":"0","TLE_LINE2":"2 55377  43.0002 179.2980 0001603 273.2956  86.7702 15.02539534 15809","PERIAPSIS":"557.959","ELEMENT_SET_NO":"999","INCLINATION":"43.0002","CLASSIFICATION_TYPE":"U","OBJECT_TYPE":"PAYLOAD","TLE_LINE1":"1 55377U 23013AY  23129.22329694  .00002447  00000-0  19614-3 0  9991","GP_ID":"231509780","OBJECT_NAME":"STARLINK-5567","LAUNCH_DATE":"2023-01-26","EPOCH":"2023-05-09T05:21:32.855616","PERIOD":"95.838","APOAPSIS":"560.183","MEAN_MOTION_DDOT":"0.0000000000000","ARG_OF_PERICENTER":"273.2956","SITE":"AFETR","DECAY_DATE":null,"REV_AT_EPOCH":"1580","NORAD_CAT_ID":"55377","COUNTRY_CODE":"US","RA_OF_ASC_NODE":"179.2980","REF_FRAME":"TEME","MEAN_MOTION":"15.02539534"},{"EPHEMERIS_TYPE":"0","FILE":"3904305","ECCENTRICITY":"0.00015550","OBJECT_ID":"2023-013AZ","OBJECT_TYPE":"PAYLOAD","PERIAPSIS":"558.014","TLE_LINE2":"2 55378  43.0016 181.5930 0001555 266.4781  93.5883 15.02532479 15742","INCLINATION":"43.0016","CLASSIFICATION_TYPE":"U","ELEMENT_SET_NO":"999","MEAN_ANOMALY":"93.5883","MEAN_MOTION_DOT":"0.00000552","SEMIMAJOR_AXIS":"6937.227","CENTER_NAME":"EARTH","MEAN_ELEMENT_THEORY":"SGP4","BSTAR":"0.00005593500000","TIME_SYSTEM":"UTC","RCS_SIZE":"LARGE","ARG_OF_PERICENTER":"266.4781","DECAY_DATE":null,"REV_AT_EPOCH":"1574","SITE":"AFETR","MEAN_MOTION_DDOT":"0.0000000000000","APOAPSIS":"560.171","MEAN_MOTION":"15.02532479","REF_FRAME":"TEME","NORAD_CAT_ID":"55378","COUNTRY_CODE":"US","RA_OF_ASC_NODE":"181.5930","OBJECT_NAME":"STARLINK-5572","TLE_LINE1":"1 55378U 23013AZ  23128.84108379  .00000552  00000-0  55935-4 0  9996","GP_ID":"231477015","PERIOD":"95.838","EPOCH":"2023-05-08T20:11:09.639456","LAUNCH_DATE":"2023-01-26"},{"PERIOD":"95.838","EPOCH":"2023-05-09T05:29:32.624448","LAUNCH_DATE":"2023-01-26","OBJECT_NAME":"STARLINK-5569","TLE_LINE1":"1 55379U 23013BA  23129.22884982  .00000843  00000-0  77486-4 0  9999","GP_ID":"231510769","MEAN_MOTION":"15.02536395","REF_FRAME":"TEME","NORAD_CAT_ID":"55379","RA_OF_ASC_NODE":"179.3410","COUNTRY_CODE":"US","ARG_OF_PERICENTER":"278.6764","DECAY_DATE":null,"REV_AT_EPOCH":"1580","SITE":"AFETR","APOAPSIS":"560.208","MEAN_MOTION_DDOT":"0.0000000000000","CENTER_NAME":"EARTH","MEAN_ELEMENT_THEORY":"SGP4","TIME_SYSTEM":"UTC","BSTAR":"0.00007748600000","RCS_SIZE":"LARGE","MEAN_ANOMALY":"81.3894","MEAN_MOTION_DOT":"0.00000843","SEMIMAJOR_AXIS":"6937.215","OBJECT_TYPE":"PAYLOAD","PERIAPSIS":"557.953","TLE_LINE2":"2 55379  43.0018 179.3410 0001625 278.6764  81.3894 15.02536395 15802","CLASSIFICATION_TYPE":"U","INCLINATION":"43.0018","ELEMENT_SET_NO":"999","EPHEMERIS_TYPE":"0","OBJECT_ID":"2023-013BA","FILE":"3904553","ECCENTRICITY":"0.00016250"},{"EPHEMERIS_TYPE":"0","OBJECT_ID":"2023-013BB","FILE":"3904553","ECCENTRICITY":"0.00010730","OBJECT_TYPE":"PAYLOAD","ELEMENT_SET_NO":"999","INCLINATION":"43.0001","CLASSIFICATION_TYPE":"U","TLE_LINE2":"2 55380  43.0001 151.8142 0001073 284.5636  27.4290 15.04465522  1300","PERIAPSIS":"552.405","MEAN_ANOMALY":"27.4290","SEMIMAJOR_AXIS":"6931.284","MEAN_MOTION_DOT":"0.00031606","BSTAR":"0.00222700000000","TIME_SYSTEM":"UTC","MEAN_ELEMENT_THEORY":"SGP4","CENTER_NAME":"EARTH","RCS_SIZE":"LARGE","SITE":"AFETR","REV_AT_EPOCH":"130","DECAY_DATE":null,"ARG_OF_PERICENTER":"284.5636","MEAN_MOTION_DDOT":"0.0000000000000","APOAPSIS":"553.893","REF_FRAME":"TEME","MEAN_MOTION":"15.04465522","COUNTRY_CODE":"US","RA_OF_ASC_NODE":"151.8142","NORAD_CAT_ID":"55380","OBJECT_NAME":"STARLINK-5571","TLE_LINE1":"1 55380U 23013BB  23129.58334491  .00031606  00000-0  22270-2 0  9995","GP_ID":"231509529","EPOCH":"2023-05-09T14:00:01.000224","PERIOD":"95.715","LAUNCH_DATE":"2023-01-26"},{"MEAN_ELEMENT_THEORY":"SGP4","BSTAR":"0.00025541000000","TIME_SYSTEM":"UTC","CENTER_NAME":"EARTH","RCS_SIZE":"LARGE","MEAN_ANOMALY":"82.2158","SEMIMAJOR_AXIS":"6937.195","MEAN_MOTION_DOT":"0.00003249","OBJECT_TYPE":"PAYLOAD","CLASSIFICATION_TYPE":"U","INCLINATION":"43.0004","ELEMENT_SET_NO":"999","PERIAPSIS":"558.024","TLE_LINE2":"2 55381  43.0004 179.3238 0001494 277.8515  82.2158 15.02542918 15808","EPHEMERIS_TYPE":"0","OBJECT_ID":"2023-013BC","FILE":"3904553","ECCENTRICITY":"0.00014940","PERIOD":"95.838","EPOCH":"2023-05-09T05:26:20.473440","LAUNCH_DATE":"2023-01-26","OBJECT_NAME":"STARLINK-5575","GP_ID":"231509280","TLE_LINE1":"1 55381U 23013BC  23129.22662585  .00003249  00000-0  25541-3 0  9992","MEAN_MOTION":"15.02542918","REF_FRAME":"TEME","RA_OF_ASC_NODE":"179.3238","COUNTRY_CODE":"US","NORAD_CAT_ID":"55381","DECAY_DATE":null,"REV_AT_EPOCH":"1580","SITE":"AFETR","ARG_OF_PERICENTER":"277.8515","MEAN_MOTION_DDOT":"0.0000000000000","APOAPSIS":"560.097"},{"PERIOD":"95.838","EPOCH":"2023-05-09T05:37:32.041632","LAUNCH_DATE":"2023-01-26","OBJECT_NAME":"STARLINK-5576","TLE_LINE1":"1 55382U 23013BD  23129.23439863  .00001215  00000-0  10499-3 0  9992","GP_ID":"231510532","MEAN_MOTION":"15.02537870","REF_FRAME":"TEME","NORAD_CAT_ID":"55382","RA_OF_ASC_NODE":"179.3837","COUNTRY_CODE":"US","ARG_OF_PERICENTER":"277.8657","DECAY_DATE":null,"REV_AT_EPOCH":"1580","SITE":"AFETR","MEAN_MOTION_DDOT":"0.0000000000000","APOAPSIS":"560.186","CENTER_NAME":"EARTH","MEAN_ELEMENT_THEORY":"SGP4","BSTAR":"0.00010499000000","TIME_SYSTEM":"UTC","RCS_SIZE":"LARGE","MEAN_ANOMALY":"82.2004","MEAN_MOTION_DOT":"0.00001215","SEMIMAJOR_AXIS":"6937.211","OBJECT_TYPE":"PAYLOAD","PERIAPSIS":"557.965","TLE_LINE2":"2 55382  43.0009 179.3837 0001601 277.8657  82.2004 15.02537870 15807","CLASSIFICATION_TYPE":"U","INCLINATION":"43.0009","ELEMENT_SET_NO":"999","EPHEMERIS_TYPE":"0","ECCENTRICITY":"0.00016010","FILE":"3904553","OBJECT_ID":"2023-013BD"},{"ARG_OF_PERICENTER":"279.2111","SITE":"AFETR","REV_AT_EPOCH":"130","DECAY_DATE":null,"APOAPSIS":"553.969","MEAN_MOTION_DDOT":"0.0000000000000","REF_FRAME":"TEME","MEAN_MOTION":"15.04459717","NORAD_CAT_ID":"55383","RA_OF_ASC_NODE":"151.6371","COUNTRY_CODE":"US","OBJECT_NAME":"STARLINK-5531","TLE_LINE1":"1 55383U 23013BE  23129.58334491  .00034990  00000-0  24631-2 0  9990","GP_ID":"231510269","EPOCH":"2023-05-09T14:00:01.000224","PERIOD":"95.715","LAUNCH_DATE":"2023-01-26","EPHEMERIS_TYPE":"0","FILE":"3904553","OBJECT_ID":"2023-013BE","ECCENTRICITY":"0.00011570","OBJECT_TYPE":"PAYLOAD","TLE_LINE2":"2 55383  42.9991 151.6371 0001157 279.2111 106.7159 15.04459717  1307","PERIAPSIS":"552.365","ELEMENT_SET_NO":"999","CLASSIFICATION_TYPE":"U","INCLINATION":"42.9991","MEAN_ANOMALY":"106.7159","MEAN_MOTION_DOT":"0.00034990","SEMIMAJOR_AXIS":"6931.302","CENTER_NAME":"EARTH","BSTAR":"0.00246310000000","TIME_SYSTEM":"UTC","MEAN_ELEMENT_THEORY":"SGP4","RCS_SIZE":"LARGE"},{"APOAPSIS":"560.207","MEAN_MOTION_DDOT":"0.0000000000000","ARG_OF_PERICENTER":"276.7791","DECAY_DATE":null,"REV_AT_EPOCH":"1580","SITE":"AFETR","NORAD_CAT_ID":"55384","RA_OF_ASC_NODE":"179.3601","COUNTRY_CODE":"US","MEAN_MOTION":"15.02540144","REF_FRAME":"TEME","TLE_LINE1":"1 55384U 23013BF  23129.23106629  .00001751  00000-0  14468-3 0  9990","GP_ID":"231509029","OBJECT_NAME":"STARLINK-5537","LAUNCH_DATE":"2023-01-26","PERIOD":"95.838","EPOCH":"2023-05-09T05:32:44.127456","FILE":"3904553","ECCENTRICITY":"0.00016410","OBJECT_ID":"2023-013BF","EPHEMERIS_TYPE":"0","PERIAPSIS":"557.930","TLE_LINE2":"2 55384  43.0009 179.3601 0001641 276.7791  83.2865 15.02540144 15803","INCLINATION":"43.0009","CLASSIFICATION_TYPE":"U","ELEMENT_SET_NO":"999","OBJECT_TYPE":"PAYLOAD","MEAN_MOTION_DOT":"0.00001751","SEMIMAJOR_AXIS":"6937.204","MEAN_ANOMALY":"83.2865","RCS_SIZE":"LARGE","CENTER_NAME":"EARTH","MEAN_ELEMENT_THEORY":"SGP4","TIME_SYSTEM":"UTC","BSTAR":"0.00014468000000"},{"MEAN_MOTION":"15.02537176","REF_FRAME":"TEME","COUNTRY_CODE":"US","RA_OF_ASC_NODE":"183.5927","NORAD_CAT_ID":"55385","DECAY_DATE":null,"REV_AT_EPOCH":"1568","SITE":"AFETR","ARG_OF_PERICENTER":"284.3720","MEAN_MOTION_DDOT":"0.0000000000000","APOAPSIS":"559.956","PERIOD":"95.838","EPOCH":"2023-05-08T10:04:49.088640","LAUNCH_DATE":"2023-01-26","OBJECT_NAME":"STARLINK-5556","TLE_LINE1":"1 55385U 23013BG  23128.42001260  .00000822  00000-0  75927-4 0  9992","GP_ID":"231478265","OBJECT_TYPE":"PAYLOAD","INCLINATION":"43.0004","CLASSIFICATION_TYPE":"U","ELEMENT_SET_NO":"999","PERIAPSIS":"558.200","TLE_LINE2":"2 55385  43.0004 183.5927 0001266 284.3720  75.6981 15.02537176 15688","EPHEMERIS_TYPE":"0","FILE":"3904305","OBJECT_ID":"2023-013BG","ECCENTRICITY":"0.00012660","MEAN_ELEMENT_THEORY":"SGP4","TIME_SYSTEM":"UTC","BSTAR":"0.00007592700000","CENTER_NAME":"EARTH","RCS_SIZE":"LARGE","MEAN_ANOMALY":"75.6981","SEMIMAJOR_AXIS":"6937.213","MEAN_MOTION_DOT":"0.00000822"}];
